ASTRA 1KR               
1 29055U 06012A   26095.82000895  .00000121  00000+0  00000+0 0  9996
2 29055   0.2868  82.1772 0003592 291.7155 134.4134  1.00271231 44974
GALAXY 16 (G-16)        
1 29236U 06023A   26095.65402301 -.00000125  00000+0  00000+0 0  9993
2 29236   0.0231 223.0129 0002819 161.4905 305.8907  1.00272327 72246
EUTELSAT 33F            
1 29270U 06032A   26095.82286895  .00000158  00000+0  00000+0 0  9993
2 29270   1.4744  83.0277 0003597 295.5695 144.8355  1.00271732 46580
JCSAT-3A                
1 29272U 06033A   26095.86149052  .00000000  00000+0  00000+0 0  9999
2 29272   0.0112 211.8317 0002501 184.2844 236.1937  1.00278626 47015
KOREASAT 5 (MUGUNGWHA 5)
1 29349U 06034A   26095.83866047 -.00000355  00000+0  00000+0 0  9996
2 29349   1.5978  83.8644 0001832 324.5040 200.7476  1.00271791 40596
ZHONGXING-22A           
1 29398U 06038A   26095.46294547  .00000103  00000+0  00000+0 0  9993
2 29398  11.3639  37.9536 0000598 345.9380 196.7388  1.00079077 71655
DIRECTV 9S              
1 29494U 06043A   26095.65358968 -.00000111  00000+0  00000+0 0  9995
2 29494   2.2336  81.7577 0003864 311.2812 295.0095  1.00272043 50655
OPTUS D1                
1 29495U 06043B   26095.77502919 -.00000181  00000+0  00000+0 0  9993
2 29495   2.8483  80.5271 0004068 300.8953 243.6392  1.00271367 71391
BADR-4                  
1 29526U 06051A   26095.82148228  .00000148  00000+0  00000+0 0  9994
2 29526   1.8181  81.8788 0006968 287.4982 146.7233  1.00274569 50548
WILDBLUE-1              
1 29643U 06054A   26095.65168300 -.00000047  00000+0  00000+0 0  9990
2 29643   2.6159  81.3790 0001726 299.9740 296.0091  1.00272229 53069
MEASAT-3                
1 29648U 06056A   26095.86240316 -.00000325  00000+0  00000+0 0  9997
2 29648   4.5433  77.0334 0004808 241.8242 306.4280  0.99748035 49660
SKYNET 5A               
1 30794U 07007B   26095.89217572 -.00000268  00000+0  00000+0 0  9995
2 30794   5.1179  74.6019 0003994 312.0425 223.9436  1.00270809 69974
ANIK F3                 
1 31102U 07009A   26095.65012299  .00000001  00000+0  00000+0 0  9998
2 31102   1.0097  84.6797 0002848 289.0293 295.5709  1.00271618 45835
ASTRA 1L                
1 31306U 07016A   26095.81142890 -.00000182  00000+0  00000+0 0  9992
2 31306   1.1346  82.0762 0004431 312.4502  67.1749  1.00272581 44260
GALAXY 17 (G-17)        
1 31307U 07016B   26095.79946887 -.00000203  00000+0  00000+0 0  9992
2 31307   2.7890  80.7906 0004107 309.7716   6.3362  1.00271469 69079
NIGCOMSAT 1             
1 31395U 07018A   26095.76454248 -.00000295  00000+0  00000+0 0  9994
2 31395  11.7494  33.4357 0002325 103.3628  71.2930  1.00222328 69332
WGS F1 (USA 195)        
1 32258U 07046A   26095.80787556 -.00000265  00000+0  00000+0 0  9997
2 32258   0.0761  82.8739 0000385 313.5817  45.9804  1.00270967 51601
