[{"OBJECT_NAME":"ASTRA 1KR","OBJECT_ID":"2006-012A","EPOCH":"2026-04-05T19:40:48.773280","MEAN_MOTION":1.00271231,"ECCENTRICITY":0.0003592,"INCLINATION":0.2868,"RA_OF_ASC_NODE":82.1772,"ARG_OF_PERICENTER":291.7155,"MEAN_ANOMALY":134.4134,"EPHEMERIS_TYPE":0,"CLASSIFICATION_TYPE":"U","NORAD_CAT_ID":29055,"ELEMENT_SET_NO":999,"REV_AT_EPOCH":4497,"BSTAR":0,"MEAN_MOTION_DOT":1.21e-6,"MEAN_MOTION_DDOT":0},{"OBJECT_NAME":"GALAXY 16 (G-16)","OBJECT_ID":"2006-023A","EPOCH":"2026-04-05T15:41:47.588064","MEAN_MOTION":1.00272327,"ECCENTRICITY":0.0002819,"INCLINATION":0.0231,"RA_OF_ASC_NODE":223.0129,"ARG_OF_PERICENTER":161.4905,"MEAN_ANOMALY":305.8907,"EPHEMERIS_TYPE":0,"CLASSIFICATION_TYPE":"U","NORAD_CAT_ID":29236,"ELEMENT_SET_NO":999,"REV_AT_EPOCH":7224,"BSTAR":0,"MEAN_MOTION_DOT":-1.25e-6,"MEAN_MOTION_DDOT":0},{"OBJECT_NAME":"EUTELSAT 33F","OBJECT_ID":"2006-032A","EPOCH":"2026-04-05T19:44:55.877280","MEAN_MOTION":1.00271732,"ECCENTRICITY":0.0003597,"INCLINATION":1.4744,"RA_OF_ASC_NODE":83.0277,"ARG_OF_PERICENTER":295.5695,"MEAN_ANOMALY":144.8355,"EPHEMERIS_TYPE":0,"CLASSIFICATION_TYPE":"U","NORAD_CAT_ID":29270,"ELEMENT_SET_NO":999,"REV_AT_EPOCH":4658,"BSTAR":0,"MEAN_MOTION_DOT":1.58e-6,"MEAN_MOTION_DDOT":0},{"OBJECT_NAME":"JCSAT-3A","OBJECT_ID":"2006-033A","EPOCH":"2026-04-05T20:40:32.780928","MEAN_MOTION":1.00278626,"ECCENTRICITY":0.0002501,"INCLINATION":0.0112,"RA_OF_ASC_NODE":211.8317,"ARG_OF_PERICENTER":184.2844,"MEAN_ANOMALY":236.1937,"EPHEMERIS_TYPE":0,"CLASSIFICATION_TYPE":"U","NORAD_CAT_ID":29272,"ELEMENT_SET_NO":999,"REV_AT_EPOCH":4701,"BSTAR":0,"MEAN_MOTION_DOT":0,"MEAN_MOTION_DDOT":0},{"OBJECT_NAME":"KOREASAT 5 (MUGUNGWHA 5)","OBJECT_ID":"2006-034A","EPOCH":"2026-04-05T20:07:40.264608","MEAN_MOTION":1.00271791,"ECCENTRICITY":0.0001832,"INCLINATION":1.5978,"RA_OF_ASC_NODE":83.8644,"ARG_OF_PERICENTER":324.504,"MEAN_ANOMALY":200.7476,"EPHEMERIS_TYPE":0,"CLASSIFICATION_TYPE":"U","NORAD_CAT_ID":29349,"ELEMENT_SET_NO":999,"REV_AT_EPOCH":4059,"BSTAR":0,"MEAN_MOTION_DOT":-3.55e-6,"MEAN_MOTION_DDOT":0},{"OBJECT_NAME":"ZHONGXING-22A","OBJECT_ID":"2006-038A","EPOCH":"2026-04-05T11:06:38.488608","MEAN_MOTION":1.00079077,"ECCENTRICITY":5.986e-5,"INCLINATION":11.3639,"RA_OF_ASC_NODE":37.9536,"ARG_OF_PERICENTER":345.938,"MEAN_ANOMALY":196.7388,"EPHEMERIS_TYPE":0,"CLASSIFICATION_TYPE":"U","NORAD_CAT_ID":29398,"ELEMENT_SET_NO":999,"REV_AT_EPOCH":7165,"BSTAR":0,"MEAN_MOTION_DOT":1.03e-6,"MEAN_MOTION_DDOT":0},{"OBJECT_NAME":"DIRECTV 9S","OBJECT_ID":"2006-043A","EPOCH":"2026-04-05T15:41:10.148352","MEAN_MOTION":1.00272043,"ECCENTRICITY":0.0003864,"INCLINATION":2.2336,"RA_OF_ASC_NODE":81.7577,"ARG_OF_PERICENTER":311.2812,"MEAN_ANOMALY":295.0095,"EPHEMERIS_TYPE":0,"CLASSIFICATION_TYPE":"U","NORAD_CAT_ID":29494,"ELEMENT_SET_NO":999,"REV_AT_EPOCH":5065,"BSTAR":0,"MEAN_MOTION_DOT":-1.11e-6,"MEAN_MOTION_DDOT":0},{"OBJECT_NAME":"OPTUS D1","OBJECT_ID":"2006-043B","EPOCH":"2026-04-05T18:36:02.522016","MEAN_MOTION":1.00271367,"ECCENTRICITY":0.0004068,"INCLINATION":2.8483,"RA_OF_ASC_NODE":80.5271,"ARG_OF_PERICENTER":300.8953,"MEAN_ANOMALY":243.6392,"EPHEMERIS_TYPE":0,"CLASSIFICATION_TYPE":"U","NORAD_CAT_ID":29495,"ELEMENT_SET_NO":999,"REV_AT_EPOCH":7139,"BSTAR":0,"MEAN_MOTION_DOT":-1.81e-6,"MEAN_MOTION_DDOT":0},{"OBJECT_NAME":"BADR-4","OBJECT_ID":"2006-051A","EPOCH":"2026-04-05T19:42:56.068992","MEAN_MOTION":1.00274569,"ECCENTRICITY":0.0006968,"INCLINATION":1.8181,"RA_OF_ASC_NODE":81.8788,"ARG_OF_PERICENTER":287.4982,"MEAN_ANOMALY":146.7233,"EPHEMERIS_TYPE":0,"CLASSIFICATION_TYPE":"U","NORAD_CAT_ID":29526,"ELEMENT_SET_NO":999,"REV_AT_EPOCH":5054,"BSTAR":0,"MEAN_MOTION_DOT":1.48e-6,"MEAN_MOTION_DDOT":0},{"OBJECT_NAME":"WILDBLUE-1","OBJECT_ID":"2006-054A","EPOCH":"2026-04-05T15:38:25.411200","MEAN_MOTION":1.00272229,"ECCENTRICITY":0.0001726,"INCLINATION":2.6159,"RA_OF_ASC_NODE":81.379,"ARG_OF_PERICENTER":299.974,"MEAN_ANOMALY":296.0091,"EPHEMERIS_TYPE":0,"CLASSIFICATION_TYPE":"U","NORAD_CAT_ID":29643,"ELEMENT_SET_NO":999,"REV_AT_EPOCH":5306,"BSTAR":0,"MEAN_MOTION_DOT":-4.7e-7,"MEAN_MOTION_DDOT":0},{"OBJECT_NAME":"MEASAT-3","OBJECT_ID":"2006-056A","EPOCH":"2026-04-05T20:41:51.633024","MEAN_MOTION":0.99748035,"ECCENTRICITY":0.0004808,"INCLINATION":4.5433,"RA_OF_ASC_NODE":77.0334,"ARG_OF_PERICENTER":241.8242,"MEAN_ANOMALY":306.428,"EPHEMERIS_TYPE":0,"CLASSIFICATION_TYPE":"U","NORAD_CAT_ID":29648,"ELEMENT_SET_NO":999,"REV_AT_EPOCH":4966,"BSTAR":0,"MEAN_MOTION_DOT":-3.25e-6,"MEAN_MOTION_DDOT":0},{"OBJECT_NAME":"SKYNET 5A","OBJECT_ID":"2007-007B","EPOCH":"2026-04-05T21:24:43.982208","MEAN_MOTION":1.00270809,"ECCENTRICITY":0.0003994,"INCLINATION":5.1179,"RA_OF_ASC_NODE":74.6019,"ARG_OF_PERICENTER":312.0425,"MEAN_ANOMALY":223.9436,"EPHEMERIS_TYPE":0,"CLASSIFICATION_TYPE":"U","NORAD_CAT_ID":30794,"ELEMENT_SET_NO":999,"REV_AT_EPOCH":6997,"BSTAR":0,"MEAN_MOTION_DOT":-2.68e-6,"MEAN_MOTION_DDOT":0},{"OBJECT_NAME":"ANIK F3","OBJECT_ID":"2007-009A","EPOCH":"2026-04-05T15:36:10.626336","MEAN_MOTION":1.00271618,"ECCENTRICITY":0.0002848,"INCLINATION":1.0097,"RA_OF_ASC_NODE":84.6797,"ARG_OF_PERICENTER":289.0293,"MEAN_ANOMALY":295.5709,"EPHEMERIS_TYPE":0,"CLASSIFICATION_TYPE":"U","NORAD_CAT_ID":31102,"ELEMENT_SET_NO":999,"REV_AT_EPOCH":4583,"BSTAR":0,"MEAN_MOTION_DOT":1.0e-8,"MEAN_MOTION_DDOT":0},{"OBJECT_NAME":"ASTRA 1L","OBJECT_ID":"2007-016A","EPOCH":"2026-04-05T19:28:27.456960","MEAN_MOTION":1.00272581,"ECCENTRICITY":0.0004431,"INCLINATION":1.1346,"RA_OF_ASC_NODE":82.0762,"ARG_OF_PERICENTER":312.4502,"MEAN_ANOMALY":67.1749,"EPHEMERIS_TYPE":0,"CLASSIFICATION_TYPE":"U","NORAD_CAT_ID":31306,"ELEMENT_SET_NO":999,"REV_AT_EPOCH":4426,"BSTAR":0,"MEAN_MOTION_DOT":-1.82e-6,"MEAN_MOTION_DDOT":0},{"OBJECT_NAME":"GALAXY 17 (G-17)","OBJECT_ID":"2007-016B","EPOCH":"2026-04-05T19:11:14.110368","MEAN_MOTION":1.00271469,"ECCENTRICITY":0.0004107,"INCLINATION":2.789,"RA_OF_ASC_NODE":80.7906,"ARG_OF_PERICENTER":309.7716,"MEAN_ANOMALY":6.3362,"EPHEMERIS_TYPE":0,"CLASSIFICATION_TYPE":"U","NORAD_CAT_ID":31307,"ELEMENT_SET_NO":999,"REV_AT_EPOCH":6907,"BSTAR":0,"MEAN_MOTION_DOT":-2.03e-6,"MEAN_MOTION_DDOT":0},{"OBJECT_NAME":"NIGCOMSAT 1","OBJECT_ID":"2007-018A","EPOCH":"2026-04-05T18:20:56.470272","MEAN_MOTION":1.00222328,"ECCENTRICITY":0.0002325,"INCLINATION":11.7494,"RA_OF_ASC_NODE":33.4357,"ARG_OF_PERICENTER":103.3628,"MEAN_ANOMALY":71.293,"EPHEMERIS_TYPE":0,"CLASSIFICATION_TYPE":"U","NORAD_CAT_ID":31395,"ELEMENT_SET_NO":999,"REV_AT_EPOCH":6933,"BSTAR":0,"MEAN_MOTION_DOT":-2.95e-6,"MEAN_MOTION_DDOT":0},{"OBJECT_NAME":"WGS F1 (USA 195)","OBJECT_ID":"2007-046A","EPOCH":"2026-04-05T19:23:20.448384","MEAN_MOTION":1.00270967,"ECCENTRICITY":3.85e-5,"INCLINATION":0.0761,"RA_OF_ASC_NODE":82.8739,"ARG_OF_PERICENTER":313.5817,"MEAN_ANOMALY":45.9804,"EPHEMERIS_TYPE":0,"CLASSIFICATION_TYPE":"U","NORAD_CAT_ID":32258,"ELEMENT_SET_NO":999,"REV_AT_EPOCH":5160,"BSTAR":0,"MEAN_MOTION_DOT":-2.65e-6,"MEAN_MOTION_DDOT":0}]
